{"type": "FeatureCollection", "features": [ {"type": "Feature", "properties": {"norad_id": 30814, "name": "FENGYUN 1C DEB", "group": "fengyun-1c-debris", "lat": 24.55907465366481, "lon": 145.1940284617872, "alt_km": 689.112476712733, "timestamp": "2025-12-10T18:57:00.344279+00:00", "meta": {"OBJECT_NAME": "FENGYUN 1C DEB", "OBJECT_ID": "1999-025AUY", "EPOCH": "2025-12-10T10:35:20.112000", "MEAN_MOTION": 14.60331245, "ECCENTRICITY": 0.0030458, "INCLINATION": 99.083, "RA_OF_ASC_NODE": 320.6202, "ARG_OF_PERICENTER": 240.2268, "MEAN_ANOMALY": 244.6607, "EPHEMERIS_TYPE": 0, "CLASSIFICATION_TYPE": "U", "NORAD_CAT_ID": 30814, "ELEMENT_SET_NO": 999, "REV_AT_EPOCH": 97708, "BSTAR": 0.0045236, "MEAN_MOTION_DOT": 0.0002202, "MEAN_MOTION_DDOT": 0}, "tle": {"line1": "1 30814U 99025AUY 25344.44120500  .00022020  00000+0  45236-2 0  9992", "line2": "2 30814  99.0830 320.6202 0030458 240.2268 244.6607 14.60331245977085"}}, "geometry": {"type": "Point", "coordinates": [145.1940284617872, 24.55907465366481]}}, {"type": "Feature", "properties": {"norad_id": 30815, "name": "FENGYUN 1C DEB", "group": "fengyun-1c-debris", "lat": 80.22987221990788, "lon": 68.27120872063072, "alt_km": 644.5756118925465, "timestamp": "2025-12-10T18:57:00.344289+00:00", "meta": {"OBJECT_NAME": "FENGYUN 1C DEB", "OBJECT_ID": "1999-025AUZ", "EPOCH": "2025-12-10T04:41:41.841888", "MEAN_MOTION": 14.73343001, "ECCENTRICITY": 0.00025014, "INCLINATION": 99.3018, "RA_OF_ASC_NODE": 139.7348, "ARG_OF_PERICENTER": 275.5288, "MEAN_ANOMALY": 262.8671, "EPHEMERIS_TYPE": 0, "CLASSIFICATION_TYPE": "U", "NORAD_CAT_ID": 30815, "ELEMENT_SET_NO": 999, "REV_AT_EPOCH": 97742, "BSTAR": 0.0058707062, "MEAN_MOTION_DOT": 0.00038158, "MEAN_MOTION_DDOT": 0}, "tle": {"line1": "1 30815U 99025AUZ 25344.19562317  .00038158  00000+0  58707-2 0  9997", "line2": "2 30815  99.3018 139.7348 0002501 275.5288 262.8671 14.73343001977426"}}, "geometry": {"type": "Point", "coordinates": [68.27120872063072, 80.22987221990788]}}, {"type": "Feature", "properties": {"norad_id": 30816, "name": "FENGYUN 1C DEB", "group": "fengyun-1c-debris", "lat": 80.14132595639582, "lon": -60.16466578857871, "alt_km": 792.9529666214439, "timestamp": "2025-12-10T18:57:00.344299+00:00", "meta": {"OBJECT_NAME": "FENGYUN 1C DEB", "OBJECT_ID": "1999-025AVA", "EPOCH": "2025-12-10T03:34:05.831904", "MEAN_MOTION": 14.17981524, "ECCENTRICITY": 0.00525921, "INCLINATION": 98.9144, "RA_OF_ASC_NODE": 54.6173, "ARG_OF_PERICENTER": 62.8182, "MEAN_ANOMALY": 1.2145, "EPHEMERIS_TYPE": 0, "CLASSIFICATION_TYPE": "U", "NORAD_CAT_ID": 30816, "ELEMENT_SET_NO": 999, "REV_AT_EPOCH": 96357, "BSTAR": 0.0022290483, "MEAN_MOTION_DOT": 4.583e-05, "MEAN_MOTION_DDOT": 0}, "tle": {"line1": "1 30816U 99025AVA 25344.14867861  .00004583  00000+0  22290-2 0  9998", "line2": "2 30816  98.9144  54.6173 0052592  62.8182   1.2145 14.17981524963576"}}, "geometry": {"type": "Point", "coordinates": [-60.16466578857871, 80.14132595639582]}}, {"type": "Feature", "properties": {"norad_id": 30817, "name": "FENGYUN 1C DEB", "group": "fengyun-1c-debris", "lat": -59.42653043564886, "lon": -9.747714554317962, "alt_km": 870.957795047666, "timestamp": "2025-12-10T18:57:00.344309+00:00", "meta": {"OBJECT_NAME": "FENGYUN 1C DEB", "OBJECT_ID": "1999-025AVB", "EPOCH": "2025-12-10T10:39:59.627232", "MEAN_MOTION": 14.00718108, "ECCENTRICITY": 0.0057377, "INCLINATION": 98.7859, "RA_OF_ASC_NODE": 334.7447, "ARG_OF_PERICENTER": 251.2994, "MEAN_ANOMALY": 108.1938, "EPHEMERIS_TYPE": 0, "CLASSIFICATION_TYPE": "U", "NORAD_CAT_ID": 30817, "ELEMENT_SET_NO": 999, "REV_AT_EPOCH": 95877, "BSTAR": 0.00039317, "MEAN_MOTION_DOT": 5.52e-06, "MEAN_MOTION_DDOT": 0}, "tle": {"line1": "1 30817U 99025AVB 25344.44444013  .00000552  00000+0  39317-3 0  9993", "line2": "2 30817  98.7859 334.7447 0057377 251.2994 108.1938 14.00718108958776"}}, "geometry": {"type": "Point", "coordinates": [-9.747714554317962, -59.42653043564886]}}, {"type": "Feature", "properties": {"norad_id": 30820, "name": "FENGYUN 1C DEB", "group": "fengyun-1c-debris", "lat": 18.171498985364195, "lon": 78.2500533426796, "alt_km": 858.2531110244317, "timestamp": "2025-12-10T18:57:00.344319+00:00", "meta": {"OBJECT_NAME": "FENGYUN 1C DEB", "OBJECT_ID": "1999-025AVE", "EPOCH": "2025-12-08T12:53:49.079040", "MEAN_MOTION": 14.21345836, "ECCENTRICITY": 0.00520408, "INCLINATION": 98.676, "RA_OF_ASC_NODE": 78.91, "ARG_OF_PERICENTER": 199.103, "MEAN_ANOMALY": 181.6146, "EPHEMERIS_TYPE": 0, "CLASSIFICATION_TYPE": "U", "NORAD_CAT_ID": 30820, "ELEMENT_SET_NO": 999, "REV_AT_EPOCH": 96364, "BSTAR": 0.0030032293, "MEAN_MOTION_DOT": 6.605e-05, "MEAN_MOTION_DDOT": 0}, "tle": {"line1": "1 30820U 99025AVE 25342.53737360  .00006605  00000+0  30032-2 0  9994", "line2": "2 30820  98.6760  78.9100 0052040 199.1030 181.6146 14.21345836963642"}}, "geometry": {"type": "Point", "coordinates": [78.2500533426796, 18.171498985364195]}}, {"type": "Feature", "properties": {"norad_id": 30821, "name": "FENGYUN 1C DEB", "group": "fengyun-1c-debris", "lat": -50.2631228741717, "lon": -63.90963177710923, "alt_km": 675.7024047171244, "timestamp": "2025-12-10T18:57:00.344329+00:00", "meta": {"OBJECT_NAME": "FENGYUN 1C DEB", "OBJECT_ID": "1999-025AVF", "EPOCH": "2025-12-09T09:00:54.203904", "MEAN_MOTION": 14.49621236, "ECCENTRICITY": 0.00863837, "INCLINATION": 99.1042, "RA_OF_ASC_NODE": 125.6863, "ARG_OF_PERICENTER": 216.0169, "MEAN_ANOMALY": 199.966, "EPHEMERIS_TYPE": 0, "CLASSIFICATION_TYPE": "U", "NORAD_CAT_ID": 30821, "ELEMENT_SET_NO": 999, "REV_AT_EPOCH": 98740, "BSTAR": 0.0015173236, "MEAN_MOTION_DOT": 6.063e-05, "MEAN_MOTION_DDOT": 0}, "tle": {"line1": "1 30821U 99025AVF 25343.37562736  .00006063  00000+0  15173-2 0  9998", "line2": "2 30821  99.1042 125.6863 0086383 216.0169 199.9660 14.49621236987401"}}, "geometry": {"type": "Point", "coordinates": [-63.90963177710923, -50.2631228741717]}}, {"type": "Feature", "properties": {"norad_id": 30822, "name": "FENGYUN 1C DEB", "group": "fengyun-1c-debris", "lat": 53.94233182691595, "lon": 0.7143555004858757, "alt_km": 878.9347305687888, "timestamp": "2025-12-10T18:57:00.344339+00:00", "meta": {"OBJECT_NAME": "FENGYUN 1C DEB", "OBJECT_ID": "1999-025AVG", "EPOCH": "2025-12-09T08:43:59.045376", "MEAN_MOTION": 14.11335561, "ECCENTRICITY": 0.00731385, "INCLINATION": 98.7355, "RA_OF_ASC_NODE": 11.5183, "ARG_OF_PERICENTER": 295.0429, "MEAN_ANOMALY": 79.4806, "EPHEMERIS_TYPE": 0, "CLASSIFICATION_TYPE": "U", "NORAD_CAT_ID": 30822, "ELEMENT_SET_NO": 999, "REV_AT_EPOCH": 96654, "BSTAR": 0.00059287446, "MEAN_MOTION_DOT": 1.056e-05, "MEAN_MOTION_DDOT": 0}, "tle": {"line1": "1 30822U 99025AVG 25343.36387784  .00001056  00000+0  59287-3 0  9998", "line2": "2 30822  98.7355  11.5183 0073138 295.0429  79.4806 14.11335561966540"}}, "geometry": {"type": "Point", "coordinates": [0.7143555004858757, 53.94233182691595]}}, {"type": "Feature", "properties": {"norad_id": 30823, "name": "FENGYUN 1C DEB", "group": "fengyun-1c-debris", "lat": -32.43719425073753, "lon": -59.75284739037601, "alt_km": 942.7546261210255, "timestamp": "2025-12-10T18:57:00.344349+00:00", "meta": {"OBJECT_NAME": "FENGYUN 1C DEB", "OBJECT_ID": "1999-025AVH", "EPOCH": "2025-12-08T22:02:43.990080", "MEAN_MOTION": 14.02547406, "ECCENTRICITY": 0.0134048, "INCLINATION": 98.762, "RA_OF_ASC_NODE": 124.0719, "ARG_OF_PERICENTER": 95.2418, "MEAN_ANOMALY": 34.3276, "EPHEMERIS_TYPE": 0, "CLASSIFICATION_TYPE": "U", "NORAD_CAT_ID": 30823, "ELEMENT_SET_NO": 999, "REV_AT_EPOCH": 95980, "BSTAR": 0.00070554, "MEAN_MOTION_DOT": 1.135e-05, "MEAN_MOTION_DDOT": 0}, "tle": {"line1": "1 30823U 99025AVH 25342.91856470  .00001135  00000+0  70554-3 0  9990", "line2": "2 30823  98.7620 124.0719 0134048  95.2418  34.3276 14.02547406959802"}}, "geometry": {"type": "Point", "coordinates": [-59.75284739037601, -32.43719425073753]}}, {"type": "Feature", "properties": {"norad_id": 30826, "name": "FENGYUN 1C DEB", "group": "fengyun-1c-debris", "lat": 41.782617807005806, "lon": 7.608486009515371, "alt_km": 689.6370385753471, "timestamp": "2025-12-10T18:57:00.344359+00:00", "meta": {"OBJECT_NAME": "FENGYUN 1C DEB", "OBJECT_ID": "1999-025AVL", "EPOCH": "2025-12-10T11:59:35.261088", "MEAN_MOTION": 14.8219794, "ECCENTRICITY": 0.0145569, "INCLINATION": 98.8671, "RA_OF_ASC_NODE": 179.2688, "ARG_OF_PERICENTER": 3.9584, "MEAN_ANOMALY": 26.5302, "EPHEMERIS_TYPE": 0, "CLASSIFICATION_TYPE": "U", "NORAD_CAT_ID": 30826, "ELEMENT_SET_NO": 999, "REV_AT_EPOCH": 253, "BSTAR": 0.00074861, "MEAN_MOTION_DOT": 7.11e-05, "MEAN_MOTION_DDOT": 0}, "tle": {"line1": "1 30826U 99025AVL 25344.49971367  .00007110  00000+0  74861-3 0  9995", "line2": "2 30826  98.8671 179.2688 0145569   3.9584  26.5302 14.82197940  2533"}}, "geometry": {"type": "Point", "coordinates": [7.608486009515371, 41.782617807005806]}}, {"type": "Feature", "properties": {"norad_id": 30827, "name": "FENGYUN 1C DEB", "group": "fengyun-1c-debris", "lat": -59.763409717294486, "lon": 134.3305974351188, "alt_km": 755.7130167333062, "timestamp": "2025-12-10T18:57:00.344369+00:00", "meta": {"OBJECT_NAME": "FENGYUN 1C DEB", "OBJECT_ID": "1999-025AVM", "EPOCH": "2025-12-09T10:05:57.854400", "MEAN_MOTION": 14.37705228, "ECCENTRICITY": 0.00435834, "INCLINATION": 99.0031, "RA_OF_ASC_NODE": 328.6813, "ARG_OF_PERICENTER": 188.6811, "MEAN_ANOMALY": 171.3626, "EPHEMERIS_TYPE": 0, "CLASSIFICATION_TYPE": "U", "NORAD_CAT_ID": 30827, "ELEMENT_SET_NO": 999, "REV_AT_EPOCH": 96501, "BSTAR": 0.0036555562, "MEAN_MOTION_DOT": 0.00011082, "MEAN_MOTION_DDOT": 0}, "tle": {"line1": "1 30827U 99025AVM 25343.42080850  .00011082  00000+0  36556-2 0  9997", "line2": "2 30827  99.0031 328.6813 0043583 188.6811 171.3626 14.37705228965017"}}, "geometry": {"type": "Point", "coordinates": [134.3305974351188, -59.763409717294486]}}]}